start=new Date('2021-10-19T00:00:00.000Z').valueOf();
sats=[{"RA_OF_ASC_NODE":"23.2023","PERIAPSIS":"546.344","MEAN_ELEMENT_THEORY":"SGP4","CENTER_NAME":"EARTH","LAUNCH_DATE":"2020-02-17","COUNTRY_CODE":"US","EPOCH":"2021-10-18T14:15:32.605632","BSTAR":"0.00017400000000","SEMIMAJOR_AXIS":"6925.340","PERIOD":"95.592","EPHEMERIS_TYPE":"0","REF_FRAME":"TEME","MEAN_MOTION":"15.06402906","OBJECT_TYPE":"PAYLOAD","OBJECT_NAME":"STARLINK-1199","MEAN_MOTION_DDOT":"0.0000000000000","MEAN_MOTION_DOT":"0.00002311","GP_ID":"187534165","ECCENTRICITY":"0.00012430","FILE":"3170620","SITE":"AFETR","ARG_OF_PERICENTER":"103.6381","MEAN_ANOMALY":"256.4746","ELEMENT_SET_NO":"999","TIME_SYSTEM":"UTC","NORAD_CAT_ID":"45201","CLASSIFICATION_TYPE":"U","TLE_LINE2":"2 45201  53.0566  23.2023 0001243 103.6381 256.4746 15.06402906 93495","TLE_LINE1":"1 45201U 20012Z   21291.59412738  .00002311  00000-0  17400-3 0  9993","APOAPSIS":"548.065","INCLINATION":"53.0566","DECAY_DATE":null,"RCS_SIZE":"LARGE","OBJECT_ID":"2020-012Z","REV_AT_EPOCH":"9349"},{"TLE_LINE2":"2 45202  52.9835  37.6334 0001347 110.8986 249.2147 15.08397061 93305","TLE_LINE1":"1 45202U 20012AA  21291.73910819  .00005895  00000-0  39278-3 0  9990","APOAPSIS":"542.032","RCS_SIZE":"LARGE","INCLINATION":"52.9835","DECAY_DATE":null,"OBJECT_ID":"2020-012AA","REV_AT_EPOCH":"9330","MEAN_ANOMALY":"249.2147","ARG_OF_PERICENTER":"110.8986","TIME_SYSTEM":"UTC","ELEMENT_SET_NO":"999","NORAD_CAT_ID":"45202","CLASSIFICATION_TYPE":"U","MEAN_MOTION":"15.08397061","REF_FRAME":"TEME","EPHEMERIS_TYPE":"0","OBJECT_NAME":"STARLINK-1203","OBJECT_TYPE":"PAYLOAD","ECCENTRICITY":"0.00013470","GP_ID":"187534415","MEAN_MOTION_DDOT":"0.0000000000000","MEAN_MOTION_DOT":"0.00005895","SITE":"AFETR","FILE":"3170620","MEAN_ELEMENT_THEORY":"SGP4","RA_OF_ASC_NODE":"37.6334","PERIAPSIS":"540.168","CENTER_NAME":"EARTH","LAUNCH_DATE":"2020-02-17","COUNTRY_CODE":"US","BSTAR":"0.00039278000000","EPOCH":"2021-10-18T17:44:18.947616","SEMIMAJOR_AXIS":"6919.235","PERIOD":"95.466"},{"OBJECT_ID":"2020-012AB","REV_AT_EPOCH":"9356","RCS_SIZE":"LARGE","INCLINATION":"53.0537","DECAY_DATE":null,"APOAPSIS":"470.917","TLE_LINE2":"2 45203  53.0537  12.5040 0002778  40.3858 319.7348 15.32279614 93561","TLE_LINE1":"1 45203U 20012AB  21291.59229558  .00027783  00000-0  88745-3 0  9991","CLASSIFICATION_TYPE":"U","NORAD_CAT_ID":"45203","ELEMENT_SET_NO":"999","TIME_SYSTEM":"UTC","ARG_OF_PERICENTER":"40.3858","MEAN_ANOMALY":"319.7348","SITE":"AFETR","FILE":"3170620","ECCENTRICITY":"0.00027780","GP_ID":"187535666","MEAN_MOTION_DDOT":"0.0000000000000","MEAN_MOTION_DOT":"0.00027783","OBJECT_NAME":"STARLINK-1204","OBJECT_TYPE":"PAYLOAD","MEAN_MOTION":"15.32279614","REF_FRAME":"TEME","EPHEMERIS_TYPE":"0","PERIOD":"93.978","SEMIMAJOR_AXIS":"6847.150","COUNTRY_CODE":"US","BSTAR":"0.00088745000000","EPOCH":"2021-10-18T14:12:54.338112","CENTER_NAME":"EARTH","LAUNCH_DATE":"2020-02-17","MEAN_ELEMENT_THEORY":"SGP4","PERIAPSIS":"467.113","RA_OF_ASC_NODE":"12.5040"},{"TIME_SYSTEM":"UTC","ELEMENT_SET_NO":"999","MEAN_ANOMALY":"267.2482","ARG_OF_PERICENTER":"92.8647","CLASSIFICATION_TYPE":"U","NORAD_CAT_ID":"45204","APOAPSIS":"548.039","TLE_LINE1":"1 45204U 20012AC  21291.55357152  .00002626  00000-0  19510-3 0  9993","TLE_LINE2":"2 45204  53.0554  23.3663 0001221  92.8647 267.2482 15.06406552 93506","REV_AT_EPOCH":"9350","OBJECT_ID":"2020-012AC","RCS_SIZE":"LARGE","DECAY_DATE":null,"INCLINATION":"53.0554","LAUNCH_DATE":"2020-02-17","CENTER_NAME":"EARTH","MEAN_ELEMENT_THEORY":"SGP4","RA_OF_ASC_NODE":"23.3663","PERIAPSIS":"546.348","PERIOD":"95.592","SEMIMAJOR_AXIS":"6925.328","EPOCH":"2021-10-18T13:17:08.579328","BSTAR":"0.00019510000000","COUNTRY_CODE":"US","OBJECT_NAME":"STARLINK-1206","OBJECT_TYPE":"PAYLOAD","MEAN_MOTION":"15.06406552","EPHEMERIS_TYPE":"0","REF_FRAME":"TEME","SITE":"AFETR","FILE":"3170121","ECCENTRICITY":"0.00012210","GP_ID":"187502776","MEAN_MOTION_DOT":"0.00002626","MEAN_MOTION_DDOT":"0.0000000000000"},{"RCS_SIZE":"LARGE","INCLINATION":"53.0555","DECAY_DATE":null,"OBJECT_ID":"2020-012AD","REV_AT_EPOCH":"9354","TLE_LINE2":"2 45205  53.0555  22.3798 0001123  90.1254 269.9864 15.06407114 93544","TLE_LINE1":"1 45205U 20012AD  21291.77472733  .00000741  00000-0  68586-4 0  9995","APOAPSIS":"547.969","NORAD_CAT_ID":"45205","CLASSIFICATION_TYPE":"U","ARG_OF_PERICENTER":"90.1254","MEAN_ANOMALY":"269.9864","TIME_SYSTEM":"UTC","ELEMENT_SET_NO":"999","ECCENTRICITY":"0.00011230","GP_ID":"187534665","MEAN_MOTION_DOT":"0.00000741","MEAN_MOTION_DDOT":"0.0000000000000","SITE":"AFETR","FILE":"3170620","MEAN_MOTION":"15.06407114","EPHEMERIS_TYPE":"0","REF_FRAME":"TEME","OBJECT_NAME":"STARLINK-1208","OBJECT_TYPE":"PAYLOAD","COUNTRY_CODE":"US","EPOCH":"2021-10-18T18:35:36.441312","BSTAR":"0.00006858600000","PERIOD":"95.592","SEMIMAJOR_AXIS":"6925.327","MEAN_ELEMENT_THEORY":"SGP4","RA_OF_ASC_NODE":"22.3798","PERIAPSIS":"546.414","CENTER_NAME":"EARTH","LAUNCH_DATE":"2020-02-17"},{"MEAN_ELEMENT_THEORY":"SGP4","RA_OF_ASC_NODE":"3.4590","PERIAPSIS":"546.457","CENTER_NAME":"EARTH","LAUNCH_DATE":"2020-02-17","COUNTRY_CODE":"US","EPOCH":"2021-10-18T12:53:14.985600","BSTAR":"0.00018015000000","SEMIMAJOR_AXIS":"6925.318","PERIOD":"95.592","MEAN_MOTION":"15.06409926","EPHEMERIS_TYPE":"0","REF_FRAME":"TEME","OBJECT_NAME":"STARLINK-1209","OBJECT_TYPE":"PAYLOAD","GP_ID":"187501275","ECCENTRICITY":"0.00010490","MEAN_MOTION_DOT":"0.00002404","MEAN_MOTION_DDOT":"0.0000000000000","SITE":"AFETR","FILE":"3170121","ARG_OF_PERICENTER":"102.0687","MEAN_ANOMALY":"258.0419","ELEMENT_SET_NO":"999","TIME_SYSTEM":"UTC","NORAD_CAT_ID":"45206","CLASSIFICATION_TYPE":"U","TLE_LINE2":"2 45206  53.0565   3.4590 0001049 102.0687 258.0419 15.06409926 92813","TLE_LINE1":"1 45206U 20012AE  21291.53697900  .00002404  00000-0  18015-3 0  9994","APOAPSIS":"547.910","RCS_SIZE":"LARGE","INCLINATION":"53.0565","DECAY_DATE":null,"REV_AT_EPOCH":"9281","OBJECT_ID":"2020-012AE"},{"NORAD_CAT_ID":"45207","CLASSIFICATION_TYPE":"U","MEAN_ANOMALY":"264.4296","ARG_OF_PERICENTER":"95.6832","ELEMENT_SET_NO":"999","TIME_SYSTEM":"UTC","DECAY_DATE":null,"INCLINATION":"53.0557","RCS_SIZE":"LARGE","REV_AT_EPOCH":"9351","OBJECT_ID":"2020-012AF","TLE_LINE1":"1 45207U 20012AF  21291.73048787  .00001993  00000-0  15264-3 0  9995","TLE_LINE2":"2 45207  53.0557  22.5786 0001226  95.6832 264.4296 15.06409503 93513","APOAPSIS":"548.033","EPOCH":"2021-10-18T17:31:54.151968","BSTAR":"0.00015264000000","COUNTRY_CODE":"US","SEMIMAJOR_AXIS":"6925.319","PERIOD":"95.592","RA_OF_ASC_NODE":"22.5786","PERIAPSIS":"546.335","MEAN_ELEMENT_THEORY":"SGP4","LAUNCH_DATE":"2020-02-17","CENTER_NAME":"EARTH","MEAN_MOTION_DDOT":"0.0000000000000","MEAN_MOTION_DOT":"0.00001993","GP_ID":"187535167","ECCENTRICITY":"0.00012260","FILE":"3170620","SITE":"AFETR","EPHEMERIS_TYPE":"0","REF_FRAME":"TEME","MEAN_MOTION":"15.06409503","OBJECT_TYPE":"PAYLOAD","OBJECT_NAME":"STARLINK-1210"},{"PERIAPSIS":"548.863","RA_OF_ASC_NODE":"22.4547","MEAN_ELEMENT_THEORY":"SGP4","LAUNCH_DATE":"2020-02-17","CENTER_NAME":"EARTH","EPOCH":"2021-10-18T18:12:49.714272","BSTAR":"0.00006576600000","COUNTRY_CODE":"US","PERIOD":"95.644","SEMIMAJOR_AXIS":"6927.837","REF_FRAME":"TEME","EPHEMERIS_TYPE":"0","MEAN_MOTION":"15.05588334","OBJECT_TYPE":"PAYLOAD","OBJECT_NAME":"STARLINK-1211","MEAN_MOTION_DOT":"0.00000679","MEAN_MOTION_DDOT":"0.0000000000000","GP_ID":"187535418","ECCENTRICITY":"0.00012120","FILE":"3170620","SITE":"AFETR","ARG_OF_PERICENTER":"101.0273","MEAN_ANOMALY":"259.0851","TIME_SYSTEM":"UTC","ELEMENT_SET_NO":"999","NORAD_CAT_ID":"45208","CLASSIFICATION_TYPE":"U","TLE_LINE1":"1 45208U 20012AG  21291.75890873  .00000679  00000-0  65766-4 0  9992","TLE_LINE2":"2 45208  53.0007  22.4547 0001212 101.0273 259.0851 15.05588334 93431","APOAPSIS":"550.542","DECAY_DATE":null,"INCLINATION":"53.0007","RCS_SIZE":"LARGE","REV_AT_EPOCH":"9343","OBJECT_ID":"2020-012AG"},{"SEMIMAJOR_AXIS":"6737.754","PERIOD":"91.734","COUNTRY_CODE":"US","BSTAR":"0.00023061000000","EPOCH":"2021-10-18T11:25:42.617280","CENTER_NAME":"EARTH","LAUNCH_DATE":"2020-02-17","RA_OF_ASC_NODE":"330.7916","PERIAPSIS":"355.562","MEAN_ELEMENT_THEORY":"SGP4","FILE":"3170121","SITE":"AFETR","MEAN_MOTION_DOT":"0.00027509","MEAN_MOTION_DDOT":"0.0000000000000","ECCENTRICITY":"0.00060200","GP_ID":"187503024","OBJECT_TYPE":"PAYLOAD","OBJECT_NAME":"STARLINK-1218","EPHEMERIS_TYPE":"0","REF_FRAME":"TEME","MEAN_MOTION":"15.69748495","CLASSIFICATION_TYPE":"U","NORAD_CAT_ID":"45209","TIME_SYSTEM":"UTC","ELEMENT_SET_NO":"999","MEAN_ANOMALY":"339.0084","ARG_OF_PERICENTER":"21.1180","REV_AT_EPOCH":"9416","OBJECT_ID":"2020-012AH","INCLINATION":"53.0542","DECAY_DATE":null,"RCS_SIZE":"LARGE","APOAPSIS":"363.675","TLE_LINE2":"2 45209  53.0542 330.7916 0006020  21.1180 339.0084 15.69748495 94166","TLE_LINE1":"1 45209U 20012AH  21291.47618770  .00027509  00000-0  23061-3 0  9998"},{"NORAD_CAT_ID":"45210","CLASSIFICATION_TYPE":"U","ARG_OF_PERICENTER":"98.1171","MEAN_ANOMALY":"261.9947","TIME_SYSTEM":"UTC","ELEMENT_SET_NO":"999","RCS_SIZE":"LARGE","INCLINATION":"53.0562","DECAY_DATE":null,"REV_AT_EPOCH":"9340","OBJECT_ID":"2020-012AJ","TLE_LINE2":"2 45210  53.0562  22.5755 0001137  98.1171 261.9947 15.06398833 93400","TLE_LINE1":"1 45210U 20012AJ  21291.73418541  .00000470  00000-0  50442-4 0  9995","APOAPSIS":"548.005","COUNTRY_CODE":"US","EPOCH":"2021-10-18T17:37:13.619424","BSTAR":"0.00005044200000","SEMIMAJOR_AXIS":"6925.352","PERIOD":"95.592","MEAN_ELEMENT_THEORY":"SGP4","RA_OF_ASC_NODE":"22.5755","PERIAPSIS":"546.430","CENTER_NAME":"EARTH","LAUNCH_DATE":"2020-02-17","ECCENTRICITY":"0.00011370","GP_ID":"187534416","MEAN_MOTION_DDOT":"0.0000000000000","MEAN_MOTION_DOT":"0.00000470","SITE":"AFETR","FILE":"3170620","MEAN_MOTION":"15.06398833","REF_FRAME":"TEME","EPHEMERIS_TYPE":"0","OBJECT_NAME":"STARLINK-1219","OBJECT_TYPE":"PAYLOAD"}];
